NUSAT-49 (KLARA DAN VO*)
1 60500U 24149AJ  26068.79810190  .00012912  00000+0  43568-3 0  9991
2 60500  97.3807 150.7380 0001132 286.7761  73.3356 15.30828857 86935
STARLINK-36033          
1 66893U 25283R   26068.26396658  .00018656  00000+0  64068-3 0  9991
2 66893  53.1627  26.5248 0001106 106.8453 253.2670 15.30186705 15771
